{
    "links": {
        "self": "http://www.neowsapp.com/rest/v1/neo/3743122?api_key=iIulBulltgU6a56xZRHN4H3l9WmuAYTsLGpBGhQ2"
    },
    "id": "3743122",
    "neo_reference_id": "3743122",
    "name": "(2016 CY137)",
    "designation": "2016 CY137",
    "nasa_jpl_url": "http://ssd.jpl.nasa.gov/sbdb.cgi?sstr=3743122",
    "absolute_magnitude_h": 26.5,
    "estimated_diameter": {
        "kilometers": {
            "estimated_diameter_min": 0.0133215567,
            "estimated_diameter_max": 0.0297879063
        },
        "meters": {
            "estimated_diameter_min": 13.3215566698,
            "estimated_diameter_max": 29.7879062798
        },
        "miles": {
            "estimated_diameter_min": 0.008277629,
            "estimated_diameter_max": 0.0185093411
        },
        "feet": {
            "estimated_diameter_min": 43.7058959846,
            "estimated_diameter_max": 97.7293544391
        }
    },
    "is_potentially_hazardous_asteroid": false,
    "close_approach_data": [
        {
            "close_approach_date": "2001-01-31",
            "close_approach_date_full": "2001-Jan-31 21:02",
            "epoch_date_close_approach": 980974920000,
            "relative_velocity": {
                "kilometers_per_second": "16.558258333",
                "kilometers_per_hour": "59609.7299988907",
                "miles_per_hour": "37039.1680651441"
            },
            "miss_distance": {
                "astronomical": "0.2587446701",
                "lunar": "100.6516766689",
                "kilometers": "38707651.520812687",
                "miles": "24051819.3573496006"
            },
            "orbiting_body": "Earth"
        },
        {
            "close_approach_date": "2005-02-19",
            "close_approach_date_full": "2005-Feb-19 23:36",
            "epoch_date_close_approach": 1108856160000,
            "relative_velocity": {
                "kilometers_per_second": "19.7996706358",
                "kilometers_per_hour": "71278.8142888505",
                "miles_per_hour": "44289.8832452027"
            },
            "miss_distance": {
                "astronomical": "0.3881697543",
                "lunar": "150.9980344227",
                "kilometers": "58069368.441703341",
                "miles": "36082632.3757784658"
            },
            "orbiting_body": "Earth"
        },
        {
            "close_approach_date": "2016-02-08",
            "close_approach_date_full": "2016-Feb-08 18:19",
            "epoch_date_close_approach": 1454955540000,
            "relative_velocity": {
                "kilometers_per_second": "15.6107002508",
                "kilometers_per_hour": "56198.5209027648",
                "miles_per_hour": "34919.5753909429"
            },
            "miss_distance": {
                "astronomical": "0.0481481993",
                "lunar": "18.7296495277",
                "kilometers": "7202868.059615491",
                "miles": "4475654.6733801358"
            },
            "orbiting_body": "Earth"
        },
        {
            "close_approach_date": "2019-08-23",
            "close_approach_date_full": "2019-Aug-23 06:39",
            "epoch_date_close_approach": 1566542340000,
            "relative_velocity": {
                "kilometers_per_second": "14.5288873456",
                "kilometers_per_hour": "52303.9944442604",
                "miles_per_hour": "32499.668103435"
            },
            "miss_distance": {
                "astronomical": "0.4031787923",
                "lunar": "156.8365502047",
                "kilometers": "60314688.557252401",
                "miles": "37477809.6003530938"
            },
            "orbiting_body": "Earth"
        },
        {
            "close_approach_date": "2027-01-29",
            "close_approach_date_full": "2027-Jan-29 12:05",
            "epoch_date_close_approach": 1801224300000,
            "relative_velocity": {
                "kilometers_per_second": "17.9614389989",
                "kilometers_per_hour": "64661.1803959482",
                "miles_per_hour": "40177.9428965824"
            },
            "miss_distance": {
                "astronomical": "0.3751550343",
                "lunar": "145.9353083427",
                "kilometers": "56122394.051056941",
                "miles": "34872838.5883141458"
            },
            "orbiting_body": "Earth"
        }
    ],
    "orbital_data": {
        "orbit_id": "4",
        "orbit_determination_date": "2017-04-06 08:28:26",
        "first_observation_date": "2016-02-09",
        "last_observation_date": "2016-02-13",
        "data_arc_in_days": 4,
        "observations_used": 36,
        "orbit_uncertainty": "7",
        "minimum_orbit_intersection": ".0479381",
        "jupiter_tisserand_invariant": "5.062",
        "epoch_osculation": "2459000.5",
        "eccentricity": ".1676973920108626",
        "semi_major_axis": "1.232030956336923",
        "inclination": "29.08650480227208",
        "ascending_node_longitude": "139.4600622181549",
        "orbital_period": "499.4946686105956",
        "perihelion_distance": "1.025422578082572",
        "perihelion_argument": "339.6785012548352",
        "aphelion_distance": "1.438639334591274",
        "perihelion_time": "2458906.333168353144",
        "mean_anomaly": "67.86871116595772",
        "mean_motion": ".7207284133810341",
        "equinox": "J2000",
        "orbit_class": {
            "orbit_class_type": "AMO",
            "orbit_class_description": "Near-Earth asteroid orbits similar to that of 1221 Amor",
            "orbit_class_range": "1.017 AU < q (perihelion) < 1.3 AU"
        }
    },
    "is_sentry_object": false
}